[
    {
        "Altitude(m)": 569308.8396179968,
        "Argument of Periapsis(deg)": 0.0,
        "Eccentricity": 0.0,
        "Inclination(deg)": 53.0,
        "Latitude(deg)": -46.77339976788927,
        "Longitude(deg)": -12.844720261609222,
        "Mean Anomaly(deg)": -65.45449999999998,
        "RAAN(deg)": 140.0,
        "Satellite Name": "Starlink Shell 1 634",
        "Satellite Number": 634,
        "Semi-Major Axis(m)": 6931778.249405717,
        "Time(s)": 0
    },
    {
        "Altitude(m)": 569184.7298654664,
        "Argument of Periapsis(deg)": 0.00034857847951123687,
        "Eccentricity": 0.0,
        "Inclination(deg)": 53.0,
        "Latitude(deg)": -46.469010003851764,
        "Longitude(deg)": -12.092999683478487,
        "Mean Anomaly(deg)": -64.82766879644333,
        "RAAN(deg)": 139.99948122992254,
        "Satellite Name": "Starlink Shell 1 634",
        "Satellite Number": 634,
        "Semi-Major Axis(m)": 6931778.249405717,
        "Time(s)": 10
    },
    {
        "Altitude(m)": 569058.1950617993,
        "Argument of Periapsis(deg)": 0.0006971569590224737,
        "Eccentricity": 0.0,
        "Inclination(deg)": 53.0,
        "Latitude(deg)": -46.159163216811095,
        "Longitude(deg)": -11.350128965943524,
        "Mean Anomaly(deg)": -64.20083759288656,
        "RAAN(deg)": 139.99896245984502,
        "Satellite Name": "Starlink Shell 1 634",
        "Satellite Number": 634,
        "Semi-Major Axis(m)": 6931778.249405717,
        "Time(s)": 20
    },
    {
        "Altitude(m)": 568929.2851779057,
        "Argument of Periapsis(deg)": 0.0010457354385337105,
        "Eccentricity": 0.0,
        "Inclination(deg)": 53.0,
        "Latitude(deg)": -45.84397675225492,
        "Longitude(deg)": -10.616066542500288,
        "Mean Anomaly(deg)": -63.57400638932985,
        "RAAN(deg)": 139.99844368976758,
        "Satellite Name": "Starlink Shell 1 634",
        "Satellite Number": 634,
        "Semi-Major Axis(m)": 6931778.249405717,
        "Time(s)": 30
    },
    {
        "Altitude(m)": 568798.0510929454,
        "Argument of Periapsis(deg)": 0.0013943139180449475,
        "Eccentricity": 0.0,
        "Inclination(deg)": 53.0,
        "Latitude(deg)": -45.523566683732696,
        "Longitude(deg)": -9.89076249804082,
        "Mean Anomaly(deg)": -62.94717518577305,
        "RAAN(deg)": 139.99792491969012,
        "Satellite Name": "Starlink Shell 1 634",
        "Satellite Number": 634,
        "Semi-Major Axis(m)": 6931778.249405717,
        "Time(s)": 40
    },
    {
        "Altitude(m)": 568664.5445720018,
        "Argument of Periapsis(deg)": 0.0017428923975561844,
        "Eccentricity": 0.0,
        "Inclination(deg)": 53.0,
        "Latitude(deg)": -45.19804772379227,
        "Longitude(deg)": -9.174160096249206,
        "Mean Anomaly(deg)": -62.32034398221638,
        "RAAN(deg)": 139.99740614961263,
        "Satellite Name": "Starlink Shell 1 634",
        "Satellite Number": 634,
        "Semi-Major Axis(m)": 6931778.249405717,
        "Time(s)": 50
    },
    {
        "Altitude(m)": 568528.8182433832,
        "Argument of Periapsis(deg)": 0.002091470877067421,
        "Eccentricity": 0.0,
        "Inclination(deg)": 53.0,
        "Latitude(deg)": -44.86753314405851,
        "Longitude(deg)": -8.4661957819146,
        "Mean Anomaly(deg)": -61.69351277865973,
        "RAAN(deg)": 139.99688737953514,
        "Satellite Name": "Starlink Shell 1 634",
        "Satellite Number": 634,
        "Semi-Major Axis(m)": 6931778.249405717,
        "Time(s)": 60
    },
    {
        "Altitude(m)": 568390.9255754926,
        "Argument of Periapsis(deg)": 0.0024400493565786582,
        "Eccentricity": 0.0,
        "Inclination(deg)": 53.0,
        "Latitude(deg)": -44.532134704073876,
        "Longitude(deg)": -7.766799169571551,
        "Mean Anomaly(deg)": -61.066681575102976,
        "RAAN(deg)": 139.9963686094577,
        "Satellite Name": "Starlink Shell 1 634",
        "Satellite Number": 634,
        "Semi-Major Axis(m)": 6931778.249405717,
        "Time(s)": 70
    },
    {
        "Altitude(m)": 568250.9208533568,
        "Argument of Periapsis(deg)": 0.002788627836089895,
        "Eccentricity": 0.0,
        "Inclination(deg)": 53.0,
        "Latitude(deg)": -44.19196258850501,
        "Longitude(deg)": -7.075894530107999,
        "Mean Anomaly(deg)": -60.43985037154631,
        "RAAN(deg)": 139.99584983938018,
        "Satellite Name": "Starlink Shell 1 634",
        "Satellite Number": 634,
        "Semi-Major Axis(m)": 6931778.249405717,
        "Time(s)": 80
    },
    {
        "Altitude(m)": 568108.8591547434,
        "Argument of Periapsis(deg)": 0.0031372063156011316,
        "Eccentricity": 0.0,
        "Inclination(deg)": 53.0,
        "Latitude(deg)": -43.84712535230022,
        "Longitude(deg)": -6.393400748576899,
        "Mean Anomaly(deg)": -59.813019167989545,
        "RAAN(deg)": 139.99533106930275,
        "Satellite Name": "Starlink Shell 1 634",
        "Satellite Number": 634,
        "Semi-Major Axis(m)": 6931778.249405717,
        "Time(s)": 90
    },
    {
        "Altitude(m)": 567964.7963259451,
        "Argument of Periapsis(deg)": 0.0034857847951123688,
        "Eccentricity": 0.0,
        "Inclination(deg)": 53.0,
        "Latitude(deg)": -43.49772987338791,
        "Longitude(deg)": -5.719231265277766,
        "Mean Anomaly(deg)": -59.1861879644328,
        "RAAN(deg)": 139.99481229922526,
        "Satellite Name": "Starlink Shell 1 634",
        "Satellite Number": 634,
        "Semi-Major Axis(m)": 6931778.249405717,
        "Time(s)": 100
    },
    {
        "Altitude(m)": 567818.7889571913,
        "Argument of Periapsis(deg)": 0.003834363274623606,
        "Eccentricity": 0.0,
        "Inclination(deg)": 53.0,
        "Latitude(deg)": -43.143881312500476,
        "Longitude(deg)": -5.053295512357687,
        "Mean Anomaly(deg)": -58.55935676087611,
        "RAAN(deg)": 139.9942935291478,
        "Satellite Name": "Starlink Shell 1 634",
        "Satellite Number": 634,
        "Semi-Major Axis(m)": 6931778.249405717,
        "Time(s)": 110
    },
    {
        "Altitude(m)": 567670.8943577103,
        "Argument of Periapsis(deg)": 0.004182941754134842,
        "Eccentricity": 0.0,
        "Inclination(deg)": 53.0,
        "Latitude(deg)": -42.78568307970218,
        "Longitude(deg)": -4.395498819731075,
        "Mean Anomaly(deg)": -57.93252555731937,
        "RAAN(deg)": 139.9937747590703,
        "Satellite Name": "Starlink Shell 1 634",
        "Satellite Number": 634,
        "Semi-Major Axis(m)": 6931778.249405717,
        "Time(s)": 120
    },
    {
        "Altitude(m)": 567521.1705304832,
        "Argument of Periapsis(deg)": 0.004531520233646079,
        "Eccentricity": 0.0,
        "Inclination(deg)": 53.0,
        "Latitude(deg)": -42.42323680721321,
        "Longitude(deg)": -3.7457423029008527,
        "Mean Anomaly(deg)": -57.305694353762725,
        "RAAN(deg)": 139.99325598899287,
        "Satellite Name": "Starlink Shell 1 634",
        "Satellite Number": 634,
        "Semi-Major Axis(m)": 6931778.249405717,
        "Time(s)": 130
    },
    {
        "Altitude(m)": 567369.6761466541,
        "Argument of Periapsis(deg)": 0.0048800987131573164,
        "Eccentricity": 0.0,
        "Inclination(deg)": 53.0,
        "Latitude(deg)": -42.05664232812462,
        "Longitude(deg)": -3.103924245394947,
        "Mean Anomaly(deg)": -56.678863150205935,
        "RAAN(deg)": 139.99273721891535,
        "Satellite Name": "Starlink Shell 1 634",
        "Satellite Number": 634,
        "Semi-Major Axis(m)": 6931778.249405717,
        "Time(s)": 140
    },
    {
        "Altitude(m)": 567216.4705196329,
        "Argument of Periapsis(deg)": 0.005228677192668553,
        "Eccentricity": 0.0,
        "Inclination(deg)": 53.0,
        "Latitude(deg)": -41.685997660604286,
        "Longitude(deg)": -2.469939950047118,
        "Mean Anomaly(deg)": -56.05203194664924,
        "RAAN(deg)": 139.99221844883792,
        "Satellite Name": "Starlink Shell 1 634",
        "Satellite Number": 634,
        "Semi-Major Axis(m)": 6931778.249405717,
        "Time(s)": 150
    },
    {
        "Altitude(m)": 567061.6135789072,
        "Argument of Periapsis(deg)": 0.00557725567217979,
        "Eccentricity": 0.0,
        "Inclination(deg)": 53.0,
        "Latitude(deg)": -41.31139899720645,
        "Longitude(deg)": -1.8436815720739417,
        "Mean Anomaly(deg)": -55.42520074309253,
        "RAAN(deg)": 139.99169967876043,
        "Satellite Name": "Starlink Shell 1 634",
        "Satellite Number": 634,
        "Semi-Major Axis(m)": 6931778.249405717,
        "Time(s)": 160
    },
    {
        "Altitude(m)": 566905.1658435584,
        "Argument of Periapsis(deg)": 0.0059258341516910265,
        "Eccentricity": 0.0,
        "Inclination(deg)": 53.0,
        "Latitude(deg)": -40.93294069891519,
        "Longitude(deg)": -1.2250394470060844,
        "Mean Anomaly(deg)": -54.79836953953576,
        "RAAN(deg)": 139.99118090868296,
        "Satellite Name": "Starlink Shell 1 634",
        "Satellite Number": 634,
        "Semi-Major Axis(m)": 6931778.249405717,
        "Time(s)": 170
    },
    {
        "Altitude(m)": 566747.188395483,
        "Argument of Periapsis(deg)": 0.006274412631202263,
        "Eccentricity": 0.0,
        "Inclination(deg)": 53.0,
        "Latitude(deg)": -40.55071529355272,
        "Longitude(deg)": -0.613901887990771,
        "Mean Anomaly(deg)": -54.171538335979115,
        "RAAN(deg)": 139.99066213860547,
        "Satellite Name": "Starlink Shell 1 634",
        "Satellite Number": 634,
        "Semi-Major Axis(m)": 6931778.249405717,
        "Time(s)": 180
    }
]